NORAD_CAT_ID,OBJECT_NAME,OBJECT_TYPE,EPOCH,MEAN_MOTION,ECCENTRICITY,INCLINATION,RA_OF_ASC_NODE,ARG_OF_PERICENTER,MEAN_ANOMALY,BSTAR,MEAN_MOTION_DOT,MEAN_MOTION_DDOT,TLE_LINE0,TLE_LINE1,TLE_LINE2,SEMIMAJOR_AXIS,PERIOD,APOGEE,PERIGEE,DECAYED
56782.0,STARLINK-6352,PAYLOAD,2024-02-26 08:11:33,14.98330942,0.0002972,70.0,36.3098,266.4132,93.6687,6.3505e-05,6.65e-06,0.0,0 STARLINK-6352,1 56782U 23078R   24057.34135931  .00000665  00000-0  63505-4 0  9995,2 56782  70.0000  36.3098 0002972 266.4132  93.6687 14.98330942 41973,6950.19,96.107,574.121,569.989,0.0
56782.0,STARLINK-6352,PAYLOAD,2024-02-26 22:36:46,14.98327072,0.0002901,70.0007,34.7962,267.6271,92.4556,-8.4253e-06,-1.93e-06,0.0,0 STARLINK-6352,1 56782U 23078R   24057.94220410 -.00000193  00000-0 -84253-5 0  9990,2 56782  70.0007  34.7962 0002901 267.6271  92.4556 14.98327072 42064,6950.202,96.107,574.083,570.051,0.0
56782.0,STARLINK-6352,PAYLOAD,2024-02-27 08:13:34,14.98327401,0.0002891,70.0007,33.7863,267.6365,92.4463,-2.411e-05,-3.81e-06,0.0,0 STARLINK-6352,1 56782U 23078R   24058.34276500 -.00000381  00000-0 -24110-4 0  9990,2 56782  70.0007  33.7863 0002891 267.6365  92.4463 14.98327401 42383,6950.201,96.107,574.075,570.057,0.0
56782.0,STARLINK-6352,PAYLOAD,2024-02-27 22:38:47,14.98330563,0.0003098,70.0005,32.2717,274.3062,85.7743,5.0372e-05,5.08e-06,0.0,0 STARLINK-6352,1 56782U 23078R   24058.94360067  .00000508  00000-0  50372-4 0  9996,2 56782  70.0005  32.2717 0003098 274.3062  85.7743 14.98330563 42213,6950.191,96.107,574.209,569.903,0.0
56782.0,STARLINK-6352,PAYLOAD,2024-02-28 03:27:11,14.98332272,0.0003001,70.0007,31.7661,272.881,87.2006,5.7552e-05,5.94e-06,0.0,0 STARLINK-6352,1 56782U 23078R   24059.14387907  .00000594  00000-0  57552-4 0  9993,2 56782  70.0007  31.7661 0003001 272.8810  87.2006 14.98332272 42505,6950.186,96.107,574.137,569.965,0.0
56782.0,STARLINK-6352,PAYLOAD,2024-02-28 08:15:35,14.983329,0.0002929,70.0004,31.2602,269.463,90.6194,0.00012024,1.342e-05,0.0,0 STARLINK-6352,1 56782U 23078R   24059.34415633  .00001342  00000-0  12024-3 0  9999,2 56782  70.0004  31.2602 0002929 269.4630  90.6194 14.98332900 42270,6950.184,96.107,574.085,570.013,0.0
56782.0,STARLINK-6352,PAYLOAD,2024-02-28 22:40:48,14.98327938,0.0002719,70.0012,29.7471,268.4183,91.6665,2.799e-05,2.41e-06,0.0,0 STARLINK-6352,1 56782U 23078R   24059.94500131  .00000241  00000-0  27990-4 0  9999,2 56782  70.0012  29.7471 0002719 268.4183  91.6665 14.98327938 42363,6950.199,96.107,573.954,570.175,0.0
56782.0,STARLINK-6352,PAYLOAD,2024-02-29 03:29:12,14.9832764,0.000266,70.0013,29.2424,263.8077,96.2779,2.7814e-05,2.39e-06,0.0,0 STARLINK-6352,1 56782U 23078R   24060.14528106  .00000239  00000-0  27814-4 0  9997,2 56782  70.0013  29.2424 0002660 263.8077  96.2779 14.98327640 42652,6950.2,96.107,573.914,570.216,0.0
56782.0,STARLINK-6352,PAYLOAD,2024-02-29 14:42:09,14.98303458,0.0002636,70.0015,28.063,283.6541,76.4325,0.00039692,4.643e-05,0.0,0 STARLINK-6352,1 56782U 23078R   24060.61261115  .00004643  00000-0  39692-3 0  9992,2 56782  70.0015  28.0630 0002636 283.6541  76.4325 14.98303458 42466,6950.275,96.109,573.972,570.308,0.0
56782.0,STARLINK-6352,PAYLOAD,2024-02-29 22:42:49,14.98309544,0.0003053,70.0007,27.2201,267.0754,93.0056,0.00030121,3.501e-05,0.0,0 STARLINK-6352,1 56782U 23078R   24060.94640470  .00003501  00000-0  30121-3 0  9993,2 56782  70.0007  27.2201 0003053 267.0754  93.0056 14.98309544 42512,6950.256,96.108,574.243,569.999,0.0
56782.0,STARLINK-6352,PAYLOAD,2024-03-01 03:31:13,14.98316573,0.0003405,70.0006,26.7156,266.561,93.516,0.00019486,2.232e-05,0.0,0 STARLINK-6352,1 56782U 23078R   24061.14668345  .00002232  00000-0  19486-3 0  9998,2 56782  70.0006  26.7156 0003405 266.5610  93.5160 14.98316573 42803,6950.234,96.108,574.466,569.733,0.0
56782.0,STARLINK-6352,PAYLOAD,2024-03-01 06:43:29,14.98337223,0.00028,70.0008,26.3788,258.0668,102.0177,-0.00013155,-1.662e-05,0.0,0 STARLINK-6352,1 56782U 23078R   24061.28019869 -.00001662  00000-0 -13155-3 0  9999,2 56782  70.0008  26.3788 0002800 258.0668 102.0177 14.98337223 42820,6950.171,96.107,573.982,570.09,0.0
56782.0,STARLINK-6352,PAYLOAD,2024-03-01 14:44:09,14.98333594,0.0002873,70.0008,25.5375,270.0681,90.0149,-4.5604e-05,-6.37e-06,0.0,0 STARLINK-6352,1 56782U 23078R   24061.61399854 -.00000637  00000-0 -45604-4 0  9997,2 56782  70.0008  25.5375 0002873 270.0681  90.0149 14.98333594 42611,6950.182,96.107,574.044,570.05,0.0
56782.0,STARLINK-6352,PAYLOAD,2024-03-02 06:45:30,14.98318946,0.0002786,70.0009,23.8544,267.5199,92.5641,0.00029607,3.44e-05,0.0,0 STARLINK-6352,1 56782U 23078R   24062.28159946  .00003440  00000-0  29607-3 0  9994,2 56782  70.0009  23.8544 0002786 267.5199  92.5641 14.98318946 42976,6950.227,96.108,574.028,570.156,0.0
56782.0,STARLINK-6352,PAYLOAD,2024-03-02 22:46:50,14.98327675,0.0002781,70.0011,22.1715,270.0658,90.0183,-1.6062e-05,-2.85e-06,0.0,0 STARLINK-6352,1 56782U 23078R   24062.94920100 -.00000285  00000-0 -16062-4 0  9993,2 56782  70.0011  22.1715 0002781 270.0658  90.0183 14.98327675 42811,6950.2,96.107,573.998,570.132,0.0
56782.0,STARLINK-6352,PAYLOAD,2024-03-03 06:47:31,14.98318625,0.0002858,70.0011,21.3303,264.9133,95.17,0.00013691,1.54e-05,0.0,0 STARLINK-6352,1 56782U 23078R   24063.28300299  .00001540  00000-0  13691-3 0  9999,2 56782  70.0011  21.3303 0002858 264.9133  95.1700 14.98318625 43121,6950.228,96.108,574.079,570.107,0.0
56782.0,STARLINK-6352,PAYLOAD,2024-03-03 21:12:44,14.98271335,0.0002876,70.0011,19.815,262.3,97.7833,0.0010404,0.00012324,0.0,0 STARLINK-6352,1 56782U 23078R   24063.88384745  .00012324  00000-0  10404-2 0  9993,2 56782  70.0011  19.8150 0002876 262.3000  97.7833 14.98271335 42959,6950.374,96.111,574.238,570.24,0.0
56782.0,STARLINK-6352,PAYLOAD,2024-03-04 03:37:15,14.98336306,0.0002784,70.0011,19.1409,267.3189,92.7651,2.1409e-05,1.63e-06,0.0,0 STARLINK-6352,1 56782U 23078R   24064.15087360  .00000163  00000-0  21409-4 0  9994,2 56782  70.0011  19.1409 0002784 267.3189  92.7651 14.98336306 43257,6950.173,96.107,573.973,570.103,0.0
56782.0,STARLINK-6352,PAYLOAD,2024-03-04 06:49:31,14.98341355,0.0002729,70.0014,18.805,267.4547,92.6299,7.9167e-05,8.52e-06,0.0,0 STARLINK-6352,1 56782U 23078R   24064.28438802  .00000852  00000-0  79167-4 0  9998,2 56782  70.0014  18.8050 0002729 267.4547  92.6299 14.98341355 43017,6950.158,96.106,573.919,570.126,0.0
56782.0,STARLINK-6352,PAYLOAD,2024-03-04 21:14:44,14.98319307,0.0002135,70.0037,17.2906,270.978,89.1134,0.00014196,1.601e-05,0.0,0 STARLINK-6352,1 56782U 23078R   24064.88523921  .00001601  00000-0  14196-3 0  9994,2 56782  70.0037  17.2906 0002135 270.9780  89.1134 14.98319307 43363,6950.226,96.108,573.575,570.607,0.0
56782.0,STARLINK-6352,PAYLOAD,2024-03-04 22:50:52,14.98317225,0.0002564,70.0024,17.1225,254.2271,105.8606,0.00012911,1.447e-05,0.0,0 STARLINK-6352,1 56782U 23078R   24064.95199962  .00001447  00000-0  12911-3 0  9997,2 56782  70.0024  17.1225 0002564 254.2271 105.8606 14.98317225 43118,6950.232,96.108,573.879,570.315,0.0
56782.0,STARLINK-6352,PAYLOAD,2024-03-05 06:51:33,14.98327574,0.0002947,70.0011,16.2785,263.7072,96.3752,-1.6297e-05,-2.87e-06,0.0,0 STARLINK-6352,1 56782U 23078R   24065.28579919 -.00000287  00000-0 -16297-4 0  9993,2 56782  70.0011  16.2785 0002947 263.7072  96.3752 14.98327574 43163,6950.2,96.107,574.114,570.017,0.0
56782.0,STARLINK-6352,PAYLOAD,2024-03-06 03:41:17,14.98345914,0.0002514,70.0014,14.0921,255.886,104.202,-0.00020332,-2.519e-05,0.0,0 STARLINK-6352,1 56782U 23078R   24066.15367269 -.00002519  00000-0 -20332-3 0  9997,2 56782  70.0014  14.0921 0002514 255.8860 104.2020 14.98345914 43559,6950.144,96.106,573.756,570.261,0.0
56782.0,STARLINK-6352,PAYLOAD,2024-03-06 06:53:32,14.98362739,0.0002478,70.0015,13.7554,255.304,104.7845,-0.00039105,-4.76e-05,0.0,0 STARLINK-6352,1 56782U 23078R   24066.28718486 -.00004760  00000-0 -39105-3 0  9990,2 56782  70.0015  13.7554 0002478 255.3040 104.7845 14.98362739 43578,6950.092,96.105,573.679,570.234,0.0
56782.0,STARLINK-6352,PAYLOAD,2024-03-07 03:43:21,14.98290155,0.0002976,70.0007,11.5659,272.0365,88.0454,-0.00031384,-3.832e-05,0.0,0 STARLINK-6352,1 56782U 23078R   24067.15511411 -.00003832  00000-0 -31384-3 0  9996,2 56782  70.0007  11.5659 0002976 272.0365  88.0454 14.98290155 43707,6950.316,96.11,574.25,570.113,0.0
56782.0,STARLINK-6352,PAYLOAD,2024-03-07 13:20:09,14.98309661,0.0002901,70.0009,10.5568,268.3658,91.7169,-0.00019898,-2.465e-05,0.0,0 STARLINK-6352,1 56782U 23078R   24067.55566608 -.00002465  00000-0 -19898-3 0  9995,2 56782  70.0009  10.5568 0002901 268.3658  91.7169 14.98309661 43503,6950.256,96.108,574.137,570.105,0.0
56782.0,STARLINK-6352,PAYLOAD,2024-03-08 00:33:04,14.98336882,0.0002572,70.0017,9.3792,266.4525,93.634,7.4252e-05,7.93e-06,0.0,0 STARLINK-6352,1 56782U 23078R   24068.02296487  .00000793  00000-0  74252-4 0  9999,2 56782  70.0017   9.3792 0002572 266.4525  93.6340 14.98336882 43836,6950.172,96.107,573.824,570.249,0.0
56782.0,STARLINK-6352,PAYLOAD,2024-03-08 13:22:08,14.98344732,0.0002069,70.0037,8.0329,271.3841,88.7081,-8.052e-05,-1.054e-05,0.0,0 STARLINK-6352,1 56782U 23078R   24068.55704321 -.00001054  00000-0 -80520-4 0  9996,2 56782  70.0037   8.0329 0002069 271.3841  88.7081 14.98344732 43657,6950.147,96.106,573.45,570.574,0.0
56782.0,STARLINK-6352,PAYLOAD,2024-03-08 19:46:40,14.9831387,0.0002328,70.0028,7.3587,271.4556,88.6337,0.00046902,5.505e-05,0.0,0 STARLINK-6352,1 56782U 23078R   24068.82408298  .00005505  00000-0  46902-3 0  9998,2 56782  70.0028   7.3587 0002328 271.4556  88.6337 14.98313870 43952,6950.243,96.108,573.726,570.49,0.0
56782.0,STARLINK-6352,PAYLOAD,2024-03-09 13:24:09,14.98315858,0.0002315,70.0022,5.5079,273.2785,86.8109,0.0004095,4.795e-05,0.0,0 STARLINK-6352,1 56782U 23078R   24069.55844771  .00004795  00000-0  40950-3 0  9996,2 56782  70.0022   5.5079 0002315 273.2785  86.8109 14.98315858 43801,6950.237,96.108,573.711,570.493,0.0
